CTC1_L_00122016-03
1 85066U 23868VH  26037.47802083  .00000000  00000+0  00000-0 0  9991
2 85066  60.0000 180.0000 0000000   0.0000   0.0000 14.24551582    10
CTC1_L_00122016-04
1 85067U 25217XZ  26037.47802083  .00000000  00000+0  00000-0 0  9992
2 85067  60.0000 180.0000 0000000   0.0000  90.0000 14.24551582    10
CTC1_L_00122017-01
1 85068U 23897WU  26037.47802083  .00000000  00000+0  00000-0 0  9995
2 85068  60.0000 192.0000 0000000   0.0000 192.0000 14.24551582    17
CTC1_L_00122017-02
1 85069U 23889NN  26037.47802083  .00000000  00000+0  00000-0 0  9997
2 85069  60.0000 192.0000 0000000   0.0000 282.0000 14.24551582    18
CTC1_L_00122017-03
1 85070U 25523CB  26037.47802083  .00000000  00000+0  00000-0 0  9996
2 85070  60.0000 192.0000 0000000   0.0000  12.0000 14.24551582    11
CTC1_L_00122017-04
1 85071U 25613EB  26037.47802083  .00000000  00000+0  00000-0 0  9997
2 85071  60.0000 192.0000 0000000   0.0000 102.0000 14.24551582    12
CTC1_L_00122018-01
1 85072U 25813EM  26037.47802083  .00000000  00000+0  00000-0 0  9990
2 85072  60.0000 204.0000 0000000   0.0000 204.0000 14.24551582    10
CTC1_L_00122018-02
1 85073U 26677HI  26037.47802083  .00000000  00000+0  00000-0 0  9990
2 85073  60.0000 204.0000 0000000   0.0000 294.0000 14.24551582    10
CTC1_L_00122018-03
1 85074U 23947ZZ  26037.47802083  .00000000  00000+0  00000-0 0  9998
2 85074  60.0000 204.0000 0000000   0.0000  24.0000 14.24551582    12
CTC1_L_00122018-04
1 85075U 26192UB  26037.47802083  .00000000  00000+0  00000-0 0  9994
2 85075  60.0000 204.0000 0000000   0.0000 114.0000 14.24551582    13
CTC1_L_00122019-01
1 85076U 24538DJ  26037.47802083  .00000000  00000+0  00000-0 0  9997
2 85076  60.0000 216.0000 0000000   0.0000 216.0000 14.24551582    10
CTC1_L_00122019-02
1 85077U 22596ZX  26037.47802083  .00000000  00000+0  00000-0 0  9990
2 85077  60.0000 216.0000 0000000   0.0000 306.0000 14.24551582    11
CTC1_L_00122019-03
1 85078U 25340OP  26037.47802083  .00000000  00000+0  00000-0 0  9991
2 85078  60.0000 216.0000 0000000   0.0000  36.0000 14.24551582    12
CTC1_L_00122019-04
1 85079U 26382TZ  26037.47802083  .00000000  00000+0  00000-0 0  9999
2 85079  60.0000 216.0000 0000000   0.0000 126.0000 14.24551582    13
CTC1_L_00122020-01
1 85080U 23115PN  26037.47802083  .00000000  00000+0  00000-0 0  9992
2 85080  60.0000 228.0000 0000000   0.0000 228.0000 14.24551582    11
CTC1_L_00122020-02
1 85081U 24188RQ  26037.47802083  .00000000  00000+0  00000-0 0  9994
2 85081  60.0000 228.0000 0000000   0.0000 318.0000 14.24551582    12
CTC1_L_00122020-03
1 85082U 25788PS  26037.47802083  .00000000  00000+0  00000-0 0  9992
2 85082  60.0000 228.0000 0000000   0.0000  48.0000 14.24551582    13
CTC1_L_00122020-04
1 85083U 24160TM  26037.47802083  .00000000  00000+0  00000-0 0  9996
2 85083  60.0000 228.0000 0000000   0.0000 138.0000 14.24551582    14
CTC1_L_00122021-01
1 85084U 23324ZC  26037.47802083  .00000000  00000+0  00000-0 0  9998
2 85084  60.0000 240.0000 0000000   0.0000 240.0000 14.24551582    13
CTC1_L_00122021-02
1 85085U 25460TT  26037.47802083  .00000000  00000+0  00000-0 0  9992
2 85085  60.0000 240.0000 0000000   0.0000 330.0000 14.24551582    14
CTC1_L_00122021-03
1 85086U 24425US  26037.47802083  .00000000  00000+0  00000-0 0  9993
2 85086  60.0000 240.0000 0000000   0.0000  60.0000 14.24551582    15
CTC1_L_00122021-04
1 85087U 23928YK  26037.47802083  .00000000  00000+0  00000-0 0  9991
2 85087  60.0000 240.0000 0000000   0.0000 150.0000 14.24551582    16
CTC1_L_00122022-01
1 85088U 25371QG  26037.47802083  .00000000  00000+0  00000-0 0  9996
2 85088  60.0000 252.0000 0000000   0.0000 252.0000 14.24551582    13
CTC1_L_00122022-02
1 85089U 26089XU  26037.47802083  .00000000  00000+0  00000-0 0  9994
2 85089  60.0000 252.0000 0000000   0.0000 342.0000 14.24551582    14
CTC1_L_00122022-03
1 85090U 23838VD  26037.47802083  .00000000  00000+0  00000-0 0  9995
2 85090  60.0000 252.0000 0000000   0.0000  72.0000 14.24551582    16
CTC1_L_00122022-04
1 85091U 26815UF  26037.47802083  .00000000  00000+0  00000-0 0  9994
2 85091  60.0000 252.0000 0000000   0.0000 162.0000 14.24551582    17
CTC1_L_00122023-01
1 85092U 23855CX  26037.47802083  .00000000  00000+0  00000-0 0  9996
2 85092  60.0000 264.0000 0000000   0.0000 264.0000 14.24551582    14
CTC1_L_00122023-02
1 85093U 26877JB  26037.47802083  .00000000  00000+0  00000-0 0  9994
2 85093  60.0000 264.0000 0000000   0.0000 354.0000 14.24551582    15
CTC1_L_00122023-03
1 85094U 23850VM  26037.47802083  .00000000  00000+0  00000-0 0  9993
2 85094  60.0000 264.0000 0000000   0.0000  84.0000 14.24551582    16
CTC1_L_00122023-04
1 85095U 26424IS  26037.47802083  .00000000  00000+0  00000-0 0  9994
2 85095  60.0000 264.0000 0000000   0.0000 174.0000 14.24551582    17
CTC1_L_00122024-01
1 85096U 26606EB  26037.47802083  .00000000  00000+0  00000-0 0  9997
2 85096  60.0000 276.0000 0000000   0.0000 276.0000 14.24551582    14
CTC1_L_00122024-02
1 85097U 24572QR  26037.47802083  .00000000  00000+0  00000-0 0  9998
2 85097  60.0000 276.0000 0000000   0.0000   6.0000 14.24551582    16
CTC1_L_00122024-03
1 85098U 26382LD  26037.47802083  .00000000  00000+0  00000-0 0  9990
2 85098  60.0000 276.0000 0000000   0.0000  96.0000 14.24551582    16
CTC1_L_00122024-04
1 85099U 23920Y   26037.47802083  .00000000  00000+0  00000-0 0  9996
2 85099  60.0000 276.0000 0000000   0.0000 186.0000 14.24551582    17
CTC1_L_00122025-01
1 85100U 24633WZ  26037.47802083  .00000000  00000+0  00000-0 0  9991
2 85100  60.0000 288.0000 0000000   0.0000 288.0000 14.24551582    16
CTC1_L_00122025-02
1 85101U 23835HM  26037.47802083  .00000000  00000+0  00000-0 0  9995
2 85101  60.0000 288.0000 0000000   0.0000  18.0000 14.24551582    18
CTC1_L_00122025-03
1 85102U 25691QL  26037.47802083  .00000000  00000+0  00000-0 0  9998
2 85102  60.0000 288.0000 0000000   0.0000 108.0000 14.24551582    19
CTC1_L_00122025-04
1 85103U 24045U   26037.47802083  .00000000  00000+0  00000-0 0  9991
2 85103  60.0000 288.0000 0000000   0.0000 198.0000 14.24551582    19
CTC1_L_00122026-01
1 85104U 24263IW  26037.47802083  .00000000  00000+0  00000-0 0  9994
2 85104  60.0000 300.0000 0000000   0.0000 300.0000 14.24551582    10
CTC1_L_00122026-02
1 85105U 22444VN  26037.47802083  .00000000  00000+0  00000-0 0  9994
2 85105  60.0000 300.0000 0000000   0.0000  30.0000 14.24551582    11
CTC1_L_00122026-03
1 85106U 25507MF  26037.47802083  .00000000  00000+0  00000-0 0  9998
2 85106  60.0000 300.0000 0000000   0.0000 120.0000 14.24551582    12
CTC1_L_00122026-04
1 85107U 24216PU  26037.47802083  .00000000  00000+0  00000-0 0  9995
2 85107  60.0000 300.0000 0000000   0.0000 210.0000 14.24551582    13
CTC1_L_00122027-01
1 85108U 23370ZI  26037.47802083  .00000000  00000+0  00000-0 0  9996
2 85108  60.0000 312.0000 0000000   0.0000 312.0000 14.24551582    10
CTC1_L_00122027-02
1 85109U 24991YG  26037.47802083  .00000000  00000+0  00000-0 0  9997
2 85109  60.0000 312.0000 0000000   0.0000  42.0000 14.24551582    11
CTC1_L_00122027-03
1 85110U 25632G   26037.47802083  .00000000  00000+0  00000-0 0  9992
2 85110  60.0000 312.0000 0000000   0.0000 132.0000 14.24551582    13
CTC1_L_00122027-04
1 85111U 24239SQ  26037.47802083  .00000000  00000+0  00000-0 0  9995
2 85111  60.0000 312.0000 0000000   0.0000 222.0000 14.24551582    14
CTC1_L_00122028-01
1 85112U 24177WN  26037.47802083  .00000000  00000+0  00000-0 0  9997
2 85112  60.0000 324.0000 0000000   0.0000 324.0000 14.24551582    11
CTC1_L_00122028-02
1 85113U 24251TL  26037.47802083  .00000000  00000+0  00000-0 0  9991
2 85113  60.0000 324.0000 0000000   0.0000  54.0000 14.24551582    12
CTC1_L_00122028-03
1 85114U 23839EC  26037.47802083  .00000000  00000+0  00000-0 0  9993
2 85114  60.0000 324.0000 0000000   0.0000 144.0000 14.24551582    13
CTC1_L_00122028-04
1 85115U 24580KF  26037.47802083  .00000000  00000+0  00000-0 0  9998
2 85115  60.0000 324.0000 0000000   0.0000 234.0000 14.24551582    14
CTC1_L_00122029-01
1 85116U 23746XH  26037.47802083  .00000000  00000+0  00000-0 0  9992
2 85116  60.0000 336.0000 0000000   0.0000 336.0000 14.24551582    11
CTC1_L_00122029-02
1 85117U 26108RF  26037.47802083  .00000000  00000+0  00000-0 0  9998
2 85117  60.0000 336.0000 0000000   0.0000  66.0000 14.24551582    12
CTC1_L_00122029-03
1 85118U 23819CV  26037.47802083  .00000000  00000+0  00000-0 0  9995
2 85118  60.0000 336.0000 0000000   0.0000 156.0000 14.24551582    13
CTC1_L_00122029-04
1 85119U 24273KD  26037.47802083  .00000000  00000+0  00000-0 0  9991
2 85119  60.0000 336.0000 0000000   0.0000 246.0000 14.24551582    14
CTC1_L_00122030-01
1 85120U 25381IG  26037.47802083  .00000000  00000+0  00000-0 0  9994
2 85120  60.0000 348.0000 0000000   0.0000 348.0000 14.24551582    12
CTC1_L_00122030-02
1 85121U 25385AW  26037.47802083  .00000000  00000+0  00000-0 0  9999
2 85121  60.0000 348.0000 0000000   0.0000  78.0000 14.24551582    13
CTC1_L_00122030-03
1 85122U 22165ML  26037.47802083  .00000000  00000+0  00000-0 0  9993
2 85122  60.0000 348.0000 0000000   0.0000 168.0000 14.24551582    14
CTC1_L_00122030-04
1 85123U 25674GZ  26037.47802083  .00000000  00000+0  00000-0 0  9992
2 85123  60.0000 348.0000 0000000   0.0000 258.0000 14.24551582    15
